NORAD_CAT_ID,OBJECT_NAME,OBJECT_TYPE,EPOCH,MEAN_MOTION,ECCENTRICITY,INCLINATION,RA_OF_ASC_NODE,ARG_OF_PERICENTER,MEAN_ANOMALY,BSTAR,MEAN_MOTION_DOT,MEAN_MOTION_DDOT,TLE_LINE0,TLE_LINE1,TLE_LINE2,SEMIMAJOR_AXIS,PERIOD,APOGEE,PERIGEE,DECAYED
56815.0,STARLINK-6057,PAYLOAD,2023-09-22 12:33:38,15.49533654,0.0003319,69.9971,96.4812,263.5786,96.5021,1.5491e-05,6.96e-06,0.0,0 STARLINK-6057,1 56815U 23078BA  23265.52335825  .00000696  00000-0  15491-4 0  9991,2 56815  69.9971  96.4812 0003319 263.5786  96.5021 15.49533654 17872,6796.226,92.931,420.347,415.836,0.0
56815.0,STARLINK-6057,PAYLOAD,2023-09-22 17:12:30,15.49537653,0.0003522,69.9973,95.9526,267.3943,92.684,-1.4222e-06,-2.4e-06,0.0,0 STARLINK-6057,1 56815U 23078BA  23265.71702185 -.00000240  00000-0 -14222-5 0  9998,2 56815  69.9973  95.9526 0003522 267.3943  92.6840 15.49537653 18165,6796.215,92.931,420.473,415.686,0.0
56815.0,STARLINK-6057,PAYLOAD,2023-09-22 21:51:23,15.4953292,0.0003331,69.9972,95.425,265.2672,94.8133,1.166e-05,4.84e-06,0.0,0 STARLINK-6057,1 56815U 23078BA  23265.91068801  .00000484  00000-0  11660-4 0  9990,2 56815  69.9972  95.4250 0003331 265.2672  94.8133 15.49532920 17932,6796.228,92.931,420.357,415.83,0.0
56815.0,STARLINK-6057,PAYLOAD,2023-09-23 11:48:00,15.49578409,0.0003743,69.9971,93.8396,267.9229,92.1527,-0.00017411,-9.799e-05,0.0,0 STARLINK-6057,1 56815U 23078BA  23266.49167764 -.00009799  00000-0 -17411-3 0  9991,2 56815  69.9971  93.8396 0003743 267.9229  92.1527 15.49578409 18287,6796.095,92.929,420.504,415.417,0.0
56815.0,STARLINK-6057,PAYLOAD,2023-09-23 13:20:59,15.49456456,0.0003191,69.9971,93.6639,267.5483,92.5337,0.00030481,0.00016694,0.0,0 STARLINK-6057,1 56815U 23078BA  23266.55624805  .00016694  00000-0  30481-3 0  9994,2 56815  69.9971  93.6639 0003191 267.5483  92.5337 15.49456456 18033,6796.452,92.936,420.486,416.148,0.0
56815.0,STARLINK-6057,PAYLOAD,2023-09-23 19:32:49,15.49518645,0.0003771,69.997,92.9598,266.9783,93.097,5.2729e-06,1.3e-06,0.0,0 STARLINK-6057,1 56815U 23078BA  23266.81446576  .00000130  00000-0  52729-5 0  9999,2 56815  69.9970  92.9598 0003771 266.9783  93.0970 15.49518645 18339,6796.27,92.932,420.698,415.572,0.0
56815.0,STARLINK-6057,PAYLOAD,2023-09-23 22:38:44,15.49527526,0.0003405,69.9974,92.6071,265.6494,94.4302,-5.756e-06,-4.8e-06,0.0,0 STARLINK-6057,1 56815U 23078BA  23266.94357140 -.00000480  00000-0 -57560-5 0  9999,2 56815  69.9974  92.6071 0003405 265.6494  94.4302 15.49527526 18359,6796.244,92.932,420.423,415.795,0.0
56815.0,STARLINK-6057,PAYLOAD,2023-09-24 14:08:19,15.49536801,0.0003521,69.9971,90.8464,267.7906,92.2876,2.9905e-05,1.494e-05,0.0,0 STARLINK-6057,1 56815U 23078BA  23267.58911130  .00001494  00000-0  29905-4 0  9990,2 56815  69.9971  90.8464 0003521 267.7906  92.2876 15.49536801 18192,6796.217,92.931,420.475,415.689,0.0
56815.0,STARLINK-6057,PAYLOAD,2023-09-24 17:14:14,15.49536499,0.0003583,69.9968,90.4943,263.4112,96.6666,2.8762e-05,1.43e-05,0.0,0 STARLINK-6057,1 56815U 23078BA  23267.71822130  .00001430  00000-0  28762-4 0  9996,2 56815  69.9968  90.4943 0003583 263.4112  96.6666 15.49536499 18475,6796.218,92.931,420.518,415.648,0.0
56815.0,STARLINK-6057,PAYLOAD,2023-09-24 21:53:06,15.49536933,0.0003431,69.9971,89.9658,262.7265,97.353,3.2583e-05,1.642e-05,0.0,0 STARLINK-6057,1 56815U 23078BA  23267.91188546  .00001642  00000-0  32583-4 0  9995,2 56815  69.9971  89.9658 0003431 262.7265  97.3530 15.49536933 18244,6796.217,92.931,420.414,415.75,0.0
56815.0,STARLINK-6057,PAYLOAD,2023-09-25 13:22:44,15.49513422,0.0002922,69.9993,88.2098,256.0852,104.0009,1.0704e-05,4.31e-06,0.0,0 STARLINK-6057,1 56815U 23078BA  23268.55745549  .00000431  00000-0  10704-4 0  9994,2 56815  69.9993  88.2098 0002922 256.0852 104.0009 15.49513422 18346,6796.285,92.932,420.136,416.165,0.0
56815.0,STARLINK-6057,PAYLOAD,2023-09-25 16:28:39,15.49525394,0.0003242,69.9973,87.8525,265.7045,94.377,-3.0072e-05,-1.824e-05,0.0,0 STARLINK-6057,1 56815U 23078BA  23268.68656259 -.00001824  00000-0 -30072-4 0  9996,2 56815  69.9973  87.8525 0003242 265.7045  94.3770 15.49525394 18629,6796.25,92.932,420.319,415.912,0.0
56815.0,STARLINK-6057,PAYLOAD,2023-09-25 21:07:31,15.49528655,0.0003479,69.997,87.325,267.6467,92.432,4.266e-05,2.199e-05,0.0,0 STARLINK-6057,1 56815U 23078BA  23268.88022001  .00002199  00000-0  42660-4 0  9990,2 56815  69.9970  87.3250 0003479 267.6467  92.4320 15.49528655 18394,6796.241,92.931,420.47,415.742,0.0
56815.0,STARLINK-6057,PAYLOAD,2023-09-26 14:10:15,15.49368883,0.0004408,69.9967,85.3903,284.7136,75.356,-0.00039109,-0.00021622,0.0,0 STARLINK-6057,1 56815U 23078BA  23269.59045908 -.00021622  00000-0 -39109-3 0  9997,2 56815  69.9967  85.3903 0004408 284.7136  75.3560 15.49368883 18503,6796.708,92.941,421.569,415.577,0.0
56815.0,STARLINK-6057,PAYLOAD,2023-09-26 15:43:14,15.4936001,0.0005182,69.9965,85.2141,291.654,68.4093,-0.00040653,-0.00022463,0.0,0 STARLINK-6057,1 56815U 23078BA  23269.65502661 -.00022463  00000-0 -40653-3 0  9998,2 56815  69.9965  85.2141 0005182 291.6540  68.4093 15.49360010 18777,6796.734,92.942,422.121,415.077,0.0
56815.0,STARLINK-6057,PAYLOAD,2023-09-26 20:22:18,15.4922409,0.0003686,69.9977,84.6846,278.1927,81.884,-0.00070135,-0.00038365,0.0,0 STARLINK-6057,1 56815U 23078BA  23269.84882800 -.00038365  00000-0 -70135-3 0  9991,2 56815  69.9977  84.6846 0003686 278.1927  81.8840 15.49224090 18542,6797.132,92.95,421.502,416.491,0.0
56815.0,STARLINK-6057,PAYLOAD,2023-09-26 21:55:22,15.49152987,0.0003775,69.9967,84.5106,268.2693,91.806,-0.00088527,-0.00048204,0.0,0 STARLINK-6057,1 56815U 23078BA  23269.91345062 -.00048204  00000-0 -88527-3 0  9990,2 56815  69.9967  84.5106 0003775 268.2693  91.8060 15.49152987 18818,6797.34,92.954,421.771,416.639,0.0
56815.0,STARLINK-6057,PAYLOAD,2023-09-27 13:25:52,15.48607673,0.00038,69.9965,82.7515,270.7823,89.2927,-0.0020375,-0.00107831,0.0,0 STARLINK-6057,1 56815U 23078BA  23270.55963857 -.00107831  00000-0 -20375-2 0  9998,2 56815  69.9965  82.7515 0003800 270.7823  89.2927 15.48607673 18653,6798.935,92.987,423.384,418.217,0.0
56815.0,STARLINK-6057,PAYLOAD,2023-09-27 20:00:01,15.47571065,0.0003617,69.9989,82.0049,275.3822,171.3829,-0.012331,-0.00591526,0.0,0 STARLINK-6057,1 56815U 23078BA  23270.83334491 -.00591526  00000-0 -12331-1 0  9995,2 56815  69.9989  82.0049 0003617 275.3822 171.3829 15.47571065 18951,6801.971,93.049,426.296,421.376,0.0
56815.0,STARLINK-6057,PAYLOAD,2023-09-28 12:00:00,15.46726551,0.0003502,69.9989,80.1929,267.5216,291.2748,-0.013247,-0.00615216,0.0,0 STARLINK-6057,1 56815U 23078BA  23271.50001157 -.00615216  00000-0 -13247-1 0  9990,2 56815  69.9989  80.1929 0003502 267.5216 291.2748 15.46726551 19055,6804.447,93.1,428.695,423.929,0.0
56815.0,STARLINK-6057,PAYLOAD,2023-09-28 16:00:30,15.46515207,0.0003634,69.9989,79.7393,271.8011,136.6211,-0.014051,-0.00645339,0.0,0 STARLINK-6057,1 56815U 23078BA  23271.66702546 -.00645339  00000-0 -14051-1 0  9990,2 56815  69.9989  79.7393 0003634 271.8011 136.6211 15.46515207  5956,6805.067,93.113,429.405,424.459,0.0
56815.0,STARLINK-6057,PAYLOAD,2023-09-28 22:00:01,15.46155908,0.0003634,69.9988,79.0614,275.1526,82.6956,-0.012738,-0.00582473,0.0,0 STARLINK-6057,1 56815U 23078BA  23271.91668981 -.00582473  00000-0 -12738-1 0  9991,2 56815  69.9988  79.0614 0003634 275.1526  82.6956 15.46155908  5934,6806.121,93.134,430.459,425.512,0.0
56815.0,STARLINK-6057,PAYLOAD,2023-09-29 12:00:00,15.4542691,0.0003583,69.9991,77.4797,269.545,93.4128,-0.014149,-0.00627352,0.0,0 STARLINK-6057,1 56815U 23078BA  23272.50001157 -.00627352  00000-0 -14149-1 0  9997,2 56815  69.9991  77.4797 0003583 269.5450  93.4128 15.45426910 19218,6808.261,93.178,432.565,427.687,0.0
56815.0,STARLINK-6057,PAYLOAD,2023-09-29 14:00:01,15.45329172,0.000353,69.999,77.2538,271.964,194.4627,-0.014858,-0.00654305,0.0,0 STARLINK-6057,1 56815U 23078BA  23272.58334491 -.00654305  00000-0 -14858-1 0  9990,2 56815  69.9990  77.2538 0003530 271.9640 194.4627 15.45329172  5895,6808.548,93.184,432.816,428.01,0.0
56815.0,STARLINK-6057,PAYLOAD,2023-09-30 06:00:00,15.4440432,0.0003428,69.9992,75.4483,271.9027,301.117,-0.013298,-0.00573286,0.0,0 STARLINK-6057,1 56815U 23078BA  23273.25001157 -.00573286  00000-0 -13298-1 0  9990,2 56815  69.9992  75.4483 0003428 271.9027 301.1170 15.44404320  5956,6811.266,93.24,435.466,430.796,0.0
56815.0,STARLINK-6057,PAYLOAD,2023-09-30 20:00:01,15.43655365,0.0003435,69.9995,73.8706,277.0977,297.4589,-0.013973,-0.00586275,0.0,0 STARLINK-6057,1 56815U 23078BA  23273.83334491 -.00586275  00000-0 -13973-1 0  9996,2 56815  69.9995  73.8706 0003435 277.0977 297.4589 15.43655365 19411,6813.469,93.285,437.674,432.993,0.0
56815.0,STARLINK-6057,PAYLOAD,2023-10-01 12:00:00,15.42818966,0.000354,70.0,72.0696,271.0904,46.1101,-0.015481,-0.00628074,0.0,0 STARLINK-6057,1 56815U 23078BA  23274.50001157 -.00628074  00000-0 -15481-1 0  9991,2 56815  70.0000  72.0696 0003540 271.0904  46.1101 15.42818966 19529,6815.931,93.336,440.209,435.383,0.0
56815.0,STARLINK-6057,PAYLOAD,2023-10-01 14:00:01,15.42716778,0.0003532,70.0,71.8447,274.1313,145.7578,-0.016098,-0.00649094,0.0,0 STARLINK-6057,1 56815U 23078BA  23274.58334491 -.00649094  00000-0 -16098-1 0  9999,2 56815  70.0000  71.8447 0003532 274.1313 145.7578 15.42716778  5885,6816.232,93.342,440.505,435.69,0.0
56815.0,STARLINK-6057,PAYLOAD,2023-10-01 22:00:00,15.42243892,0.0003529,69.9998,70.9451,279.4846,190.8356,-0.014657,-0.00586392,0.0,0 STARLINK-6057,1 56815U 23078BA  23274.91667824 -.00586392  00000-0 -14657-1 0  9995,2 56815  69.9998  70.9451 0003529 279.4846 190.8356 15.42243892  5942,6817.625,93.37,441.896,437.084,0.0
56815.0,STARLINK-6057,PAYLOAD,2023-10-02 22:00:00,15.40946223,0.0003515,69.9999,68.2505,278.3121,340.1303,-0.015624,-0.00597678,0.0,0 STARLINK-6057,1 56815U 23078BA  23275.91667824 -.00597678  00000-0 -15624-1 0  9990,2 56815  69.9999  68.2505 0003515 278.3121 340.1303 15.40946223 19743,6821.452,93.449,445.715,440.92,0.0
